{"type": "FeatureCollection", "features": [ {"type": "Feature", "properties": {"norad_id": 30629, "name": "FENGYUN 1C DEB", "group": "fengyun-1c-debris", "lat": 33.51967432152945, "lon": 70.75959837978328, "alt_km": 698.5650152595163, "timestamp": "2025-12-07T14:37:05.482330+00:00", "meta": {"OBJECT_NAME": "FENGYUN 1C DEB", "OBJECT_ID": "1999-025ANL", "EPOCH": "2025-12-06T12:43:28.699392", "MEAN_MOTION": 14.59306421, "ECCENTRICITY": 0.00077316, "INCLINATION": 99.2519, "RA_OF_ASC_NODE": 75.7565, "ARG_OF_PERICENTER": 212.7151, "MEAN_ANOMALY": 276.5679, "EPHEMERIS_TYPE": 0, "CLASSIFICATION_TYPE": "U", "NORAD_CAT_ID": 30629, "ELEMENT_SET_NO": 999, "REV_AT_EPOCH": 97799, "BSTAR": 0.0052253957, "MEAN_MOTION_DOT": 0.00024742, "MEAN_MOTION_DDOT": 0}, "tle": {"line1": "1 30629U 99025ANL 25340.53019328  .00024742  00000+0  52254-2 0  9998", "line2": "2 30629  99.2519  75.7565 0007731 212.7151 276.5679 14.59306421977997"}}, "geometry": {"type": "Point", "coordinates": [70.75959837978328, 33.51967432152945]}}, {"type": "Feature", "properties": {"norad_id": 30630, "name": "FENGYUN 1C DEB", "group": "fengyun-1c-debris", "lat": -42.51351625167612, "lon": 162.95697856546502, "alt_km": 836.4851091008522, "timestamp": "2025-12-07T14:37:05.482340+00:00", "meta": {"OBJECT_NAME": "FENGYUN 1C DEB", "OBJECT_ID": "1999-025ANM", "EPOCH": "2025-12-06T10:15:39.659040", "MEAN_MOTION": 14.22340888, "ECCENTRICITY": 0.00259805, "INCLINATION": 99.1726, "RA_OF_ASC_NODE": 153.2098, "ARG_OF_PERICENTER": 92.34, "MEAN_ANOMALY": 298.0896, "EPHEMERIS_TYPE": 0, "CLASSIFICATION_TYPE": "U", "NORAD_CAT_ID": 30630, "ELEMENT_SET_NO": 999, "REV_AT_EPOCH": 97123, "BSTAR": 0.001655757, "MEAN_MOTION_DOT": 3.649e-05, "MEAN_MOTION_DDOT": 0}, "tle": {"line1": "1 30630U 99025ANM 25340.42754235  .00003649  00000+0  16558-2 0  9991", "line2": "2 30630  99.1726 153.2098 0025980  92.3400 298.0896 14.22340888971232"}}, "geometry": {"type": "Point", "coordinates": [162.95697856546502, -42.51351625167612]}}, {"type": "Feature", "properties": {"norad_id": 30632, "name": "FENGYUN 1C DEB", "group": "fengyun-1c-debris", "lat": 53.301576197103174, "lon": -55.36192934780078, "alt_km": 674.471340931248, "timestamp": "2025-12-07T14:37:05.482350+00:00", "meta": {"OBJECT_NAME": "FENGYUN 1C DEB", "OBJECT_ID": "1999-025ANP", "EPOCH": "2025-12-06T20:40:17.871744", "MEAN_MOTION": 14.6241906, "ECCENTRICITY": 0.00155192, "INCLINATION": 98.824, "RA_OF_ASC_NODE": 111.8101, "ARG_OF_PERICENTER": 186.6189, "MEAN_ANOMALY": 324.6617, "EPHEMERIS_TYPE": 0, "CLASSIFICATION_TYPE": "U", "NORAD_CAT_ID": 30632, "ELEMENT_SET_NO": 999, "REV_AT_EPOCH": 97605, "BSTAR": 0.0062741163, "MEAN_MOTION_DOT": 0.00031896, "MEAN_MOTION_DDOT": 0}, "tle": {"line1": "1 30632U 99025ANP 25340.86131796  .00031896  00000+0  62741-2 0  9992", "line2": "2 30632  98.8240 111.8101 0015519 186.6189 324.6617 14.62419060976059"}}, "geometry": {"type": "Point", "coordinates": [-55.36192934780078, 53.301576197103174]}}, {"type": "Feature", "properties": {"norad_id": 30633, "name": "FENGYUN 1C DEB", "group": "fengyun-1c-debris", "lat": 9.792655867319839, "lon": -154.48430922719652, "alt_km": 887.6011689083034, "timestamp": "2025-12-07T14:37:05.482361+00:00", "meta": {"OBJECT_NAME": "FENGYUN 1C DEB", "OBJECT_ID": "1999-025ANQ", "EPOCH": "2025-12-06T14:55:40.158048", "MEAN_MOTION": 14.04362284, "ECCENTRICITY": 0.0130757, "INCLINATION": 98.4206, "RA_OF_ASC_NODE": 206.065, "ARG_OF_PERICENTER": 277.6189, "MEAN_ANOMALY": 143.2076, "EPHEMERIS_TYPE": 0, "CLASSIFICATION_TYPE": "U", "NORAD_CAT_ID": 30633, "ELEMENT_SET_NO": 999, "REV_AT_EPOCH": 95806, "BSTAR": 0.0016244115, "MEAN_MOTION_DOT": 2.749e-05, "MEAN_MOTION_DDOT": 0}, "tle": {"line1": "1 30633U 99025ANQ 25340.62199257  .00002749  00000+0  16244-2 0  9995", "line2": "2 30633  98.4206 206.0650 0130757 277.6189 143.2076 14.04362284958063"}}, "geometry": {"type": "Point", "coordinates": [-154.48430922719652, 9.792655867319839]}}, {"type": "Feature", "properties": {"norad_id": 30634, "name": "FENGYUN 1C DEB", "group": "fengyun-1c-debris", "lat": -78.80442788336302, "lon": 20.0676924262182, "alt_km": 952.2658417538496, "timestamp": "2025-12-07T14:37:05.482370+00:00", "meta": {"OBJECT_NAME": "FENGYUN 1C DEB", "OBJECT_ID": "1999-025ANR", "EPOCH": "2025-12-06T22:14:39.839136", "MEAN_MOTION": 14.09646142, "ECCENTRICITY": 0.0120549, "INCLINATION": 99.2916, "RA_OF_ASC_NODE": 323.5591, "ARG_OF_PERICENTER": 112.7302, "MEAN_ANOMALY": 302.9003, "EPHEMERIS_TYPE": 0, "CLASSIFICATION_TYPE": "U", "NORAD_CAT_ID": 30634, "ELEMENT_SET_NO": 999, "REV_AT_EPOCH": 95535, "BSTAR": 0.0027719644, "MEAN_MOTION_DOT": 5.154e-05, "MEAN_MOTION_DDOT": 0}, "tle": {"line1": "1 30634U 99025ANR 25340.92684999  .00005154  00000+0  27720-2 0  9995", "line2": "2 30634  99.2916 323.5591 0120549 112.7302 302.9003 14.09646142955350"}}, "geometry": {"type": "Point", "coordinates": [20.0676924262182, -78.80442788336302]}}, {"type": "Feature", "properties": {"norad_id": 30639, "name": "FENGYUN 1C DEB", "group": "fengyun-1c-debris", "lat": -64.09444779644505, "lon": -105.69680762905982, "alt_km": 760.9872053141435, "timestamp": "2025-12-07T14:37:05.482380+00:00", "meta": {"OBJECT_NAME": "FENGYUN 1C DEB", "OBJECT_ID": "1999-025ANW", "EPOCH": "2025-12-05T12:50:41.481312", "MEAN_MOTION": 14.32158076, "ECCENTRICITY": 0.00668358, "INCLINATION": 99.0193, "RA_OF_ASC_NODE": 91.2358, "ARG_OF_PERICENTER": 302.2906, "MEAN_ANOMALY": 57.1813, "EPHEMERIS_TYPE": 0, "CLASSIFICATION_TYPE": "U", "NORAD_CAT_ID": 30639, "ELEMENT_SET_NO": 999, "REV_AT_EPOCH": 96616, "BSTAR": 0.0052811575, "MEAN_MOTION_DOT": 0.00014553, "MEAN_MOTION_DDOT": 0}, "tle": {"line1": "1 30639U 99025ANW 25339.53520233  .00014553  00000+0  52812-2 0  9998", "line2": "2 30639  99.0193  91.2358 0066835 302.2906  57.1813 14.32158076966162"}}, "geometry": {"type": "Point", "coordinates": [-105.69680762905982, -64.09444779644505]}}, {"type": "Feature", "properties": {"norad_id": 30640, "name": "FENGYUN 1C DEB", "group": "fengyun-1c-debris", "lat": -13.144379348073292, "lon": 54.878034541330784, "alt_km": 884.1095638532815, "timestamp": "2025-12-07T14:37:05.482390+00:00", "meta": {"OBJECT_NAME": "FENGYUN 1C DEB", "OBJECT_ID": "1999-025ANX", "EPOCH": "2025-12-05T22:12:22.076928", "MEAN_MOTION": 14.145743, "ECCENTRICITY": 0.00813405, "INCLINATION": 99.058, "RA_OF_ASC_NODE": 51.0355, "ARG_OF_PERICENTER": 119.6801, "MEAN_ANOMALY": 297.6834, "EPHEMERIS_TYPE": 0, "CLASSIFICATION_TYPE": "U", "NORAD_CAT_ID": 30640, "ELEMENT_SET_NO": 999, "REV_AT_EPOCH": 96349, "BSTAR": 0.0026768953, "MEAN_MOTION_DOT": 5.265e-05, "MEAN_MOTION_DDOT": 0}, "tle": {"line1": "1 30640U 99025ANX 25339.92525552  .00005265  00000+0  26769-2 0  9994", "line2": "2 30640  99.0580  51.0355 0081340 119.6801 297.6834 14.14574300963496"}}, "geometry": {"type": "Point", "coordinates": [54.878034541330784, -13.144379348073292]}}, {"type": "Feature", "properties": {"norad_id": 30641, "name": "FENGYUN 1C DEB", "group": "fengyun-1c-debris", "lat": -10.494015727236109, "lon": 93.74330708428543, "alt_km": 572.310233576879, "timestamp": "2025-12-07T14:37:05.482400+00:00", "meta": {"OBJECT_NAME": "FENGYUN 1C DEB", "OBJECT_ID": "1999-025ANY", "EPOCH": "2025-12-06T18:25:21.150624", "MEAN_MOTION": 14.78892365, "ECCENTRICITY": 0.01359871, "INCLINATION": 98.9419, "RA_OF_ASC_NODE": 274.4798, "ARG_OF_PERICENTER": 145.3226, "MEAN_ANOMALY": 246.5844, "EPHEMERIS_TYPE": 0, "CLASSIFICATION_TYPE": "U", "NORAD_CAT_ID": 30641, "ELEMENT_SET_NO": 999, "REV_AT_EPOCH": 444, "BSTAR": 0.00083370735, "MEAN_MOTION_DOT": 7.115e-05, "MEAN_MOTION_DDOT": 0}, "tle": {"line1": "1 30641U 99025ANY 25340.76760591  .00007115  00000+0  83371-3 0  9992", "line2": "2 30641  98.9419 274.4798 0135987 145.3226 246.5844 14.78892365  4441"}}, "geometry": {"type": "Point", "coordinates": [93.74330708428543, -10.494015727236109]}}, {"type": "Feature", "properties": {"norad_id": 30646, "name": "FENGYUN 1C DEB", "group": "fengyun-1c-debris", "lat": 52.777210409452316, "lon": -166.08828927817257, "alt_km": 849.2541850945609, "timestamp": "2025-12-07T14:37:05.482410+00:00", "meta": {"OBJECT_NAME": "FENGYUN 1C DEB", "OBJECT_ID": "1999-025APD", "EPOCH": "2025-12-06T07:21:44.445024", "MEAN_MOTION": 14.09629423, "ECCENTRICITY": 0.0048506, "INCLINATION": 98.6528, "RA_OF_ASC_NODE": 1.0968, "ARG_OF_PERICENTER": 50.1797, "MEAN_ANOMALY": 310.3628, "EPHEMERIS_TYPE": 0, "CLASSIFICATION_TYPE": "U", "NORAD_CAT_ID": 30646, "ELEMENT_SET_NO": 999, "REV_AT_EPOCH": 96514, "BSTAR": 0.0011140467, "MEAN_MOTION_DOT": 1.932e-05, "MEAN_MOTION_DDOT": 0}, "tle": {"line1": "1 30646U 99025APD 25340.30676441  .00001932  00000+0  11140-2 0  9992", "line2": "2 30646  98.6528   1.0968 0048506  50.1797 310.3628 14.09629423965143"}}, "geometry": {"type": "Point", "coordinates": [-166.08828927817257, 52.777210409452316]}}, {"type": "Feature", "properties": {"norad_id": 30647, "name": "FENGYUN 1C DEB", "group": "fengyun-1c-debris", "lat": 78.2134181339545, "lon": -136.0848933301982, "alt_km": 704.1234528964724, "timestamp": "2025-12-07T14:37:05.482420+00:00", "meta": {"OBJECT_NAME": "FENGYUN 1C DEB", "OBJECT_ID": "1999-025APE", "EPOCH": "2025-12-04T18:52:56.020800", "MEAN_MOTION": 14.56227165, "ECCENTRICITY": 0.00288037, "INCLINATION": 98.989, "RA_OF_ASC_NODE": 270.2156, "ARG_OF_PERICENTER": 199.8234, "MEAN_ANOMALY": 214.8083, "EPHEMERIS_TYPE": 0, "CLASSIFICATION_TYPE": "U", "NORAD_CAT_ID": 30647, "ELEMENT_SET_NO": 999, "REV_AT_EPOCH": 97873, "BSTAR": 0.0059112224, "MEAN_MOTION_DOT": 0.0002633, "MEAN_MOTION_DDOT": 0}, "tle": {"line1": "1 30647U 99025APE 25338.78675950  .00026330  00000+0  59112-2 0  9996", "line2": "2 30647  98.9890 270.2156 0028803 199.8234 214.8083 14.56227165978734"}}, "geometry": {"type": "Point", "coordinates": [-136.0848933301982, 78.2134181339545]}}]}